[{"OBJECT_NAME":"SITRO-AIS 24","OBJECT_ID":"2024-199G","EPOCH":"2026-03-09T22:55:13.311552","MEAN_MOTION":14.95574575,"ECCENTRICITY":0.00134035,"INCLINATION":97.3325,"RA_OF_ASC_NODE":273.3822,"ARG_OF_PERICENTER":42.6191,"MEAN_ANOMALY":317.6069,"EPHEMERIS_TYPE":0,"CLASSIFICATION_TYPE":"U","NORAD_CAT_ID":61741,"ELEMENT_SET_NO":999,"REV_AT_EPOCH":11705,"BSTAR":0.00037285708,"MEAN_MOTION_DOT":4.091e-5,"MEAN_MOTION_DDOT":0},{"OBJECT_NAME":"STARLINK-34649","OBJECT_ID":"2025-150J","EPOCH":"2026-03-09T13:11:06.449280","MEAN_MOTION":14.98332147,"ECCENTRICITY":0.00033215,"INCLINATION":70.0024,"RA_OF_ASC_NODE":134.9019,"ARG_OF_PERICENTER":258.4155,"MEAN_ANOMALY":101.6631,"EPHEMERIS_TYPE":0,"CLASSIFICATION_TYPE":"U","NORAD_CAT_ID":64798,"ELEMENT_SET_NO":999,"REV_AT_EPOCH":3738,"BSTAR":8.417142e-5,"MEAN_MOTION_DOT":9.12e-6,"MEAN_MOTION_DDOT":0}]
